{
  "norad_id": 67405,
  "name": "STARLINK-36452",
  "history": [
    {
      "epoch": "2026-03-28T19:15:09.464832Z",
      "apogee_km": 484.29713702764457,
      "perigee_km": 481.70252952277406,
      "latitude_deg": -2.3847513655239484e-05,
      "longitude_deg": 14.675524497065547,
      "height_km": 482.5457720821977,
      "semi_major_axis_km": 6861.136833275209,
      "eccentricity": 0.00018908,
      "inclination_deg": 42.9996,
      "raan_deg": 129.6824,
      "arg_perigee_deg": 280.2622,
      "mean_anomaly_deg": 79.8016,
      "mean_motion_rev_day": 15.27596452
    },
    {
      "epoch": "2026-03-29T09:22:33.773952Z",
      "apogee_km": 483.51418309229757,
      "perigee_km": 482.4136625042802,
      "latitude_deg": -1.5781194676470565e-06,
      "longitude_deg": 158.9243321518177,
      "height_km": 482.8618674255463,
      "semi_major_axis_km": 6861.100922798289,
      "eccentricity": 8.02e-05,
      "inclination_deg": 43.0013,
      "raan_deg": 126.3625,
      "arg_perigee_deg": 257.2271,
      "mean_anomaly_deg": 102.8491,
      "mean_motion_rev_day": 15.27608445
    },
    {
      "epoch": "2026-03-30T10:29:04.184736Z",
      "apogee_km": 483.9830868280578,
      "perigee_km": 482.1280947992045,
      "latitude_deg": -1.4517880855302426e-05,
      "longitude_deg": 135.354540270694,
      "height_km": 482.63392889329845,
      "semi_major_axis_km": 6861.192590813631,
      "eccentricity": 0.00013518,
      "inclination_deg": 42.9989,
      "raan_deg": 120.4506,
      "arg_perigee_deg": 282.3392,
      "mean_anomaly_deg": 77.7308,
      "mean_motion_rev_day": 15.27577831
    },
    {
      "epoch": "2026-03-30T18:19:51.440448Z",
      "apogee_km": 483.6718690757898,
      "perigee_km": 482.42532887616744,
      "latitude_deg": 4.4694224195028335e-05,
      "longitude_deg": 15.491562333257473,
      "height_km": 482.6370520651898,
      "semi_major_axis_km": 6861.185598975979,
      "eccentricity": 9.084e-05,
      "inclination_deg": 43.0022,
      "raan_deg": 118.6067,
      "arg_perigee_deg": 287.561,
      "mean_anomaly_deg": 72.5143,
      "mean_motion_rev_day": 15.27580166
    },
    {
      "epoch": "2026-03-31T17:52:11.801856Z",
      "apogee_km": 484.55925627881334,
      "perigee_km": 481.42234864752754,
      "latitude_deg": 1.0615034449906002e-05,
      "longitude_deg": 15.899076171906042,
      "height_km": 482.48793350326923,
      "semi_major_axis_km": 6861.12780246317,
      "eccentricity": 0.0002286,
      "inclination_deg": 43.0018,
      "raan_deg": 113.0658,
      "arg_perigee_deg": 280.3007,
      "mean_anomaly_deg": 79.7587,
      "mean_motion_rev_day": 15.27599468
    },
    {
      "epoch": "2026-04-01T17:24:33.287328Z",
      "apogee_km": 483.464306586412,
      "perigee_km": 482.59705499155916,
      "latitude_deg": -1.4728646950517311e-05,
      "longitude_deg": 16.30520283461578,
      "height_km": 482.6191216507641,
      "semi_major_axis_km": 6861.167680788985,
      "eccentricity": 6.32e-05,
      "inclination_deg": 42.9981,
      "raan_deg": 107.5282,
      "arg_perigee_deg": 295.5969,
      "mean_anomaly_deg": 64.4817,
      "mean_motion_rev_day": 15.2758615
    },
    {
      "epoch": "2026-04-02T16:56:53.229696Z",
      "apogee_km": 484.64700336633086,
      "perigee_km": 481.25625336619214,
      "latitude_deg": -2.971332687619556e-05,
      "longitude_deg": 16.713487330166462,
      "height_km": 482.5286633818029,
      "semi_major_axis_km": 6861.088628366261,
      "eccentricity": 0.0002471,
      "inclination_deg": 43.0017,
      "raan_deg": 101.9863,
      "arg_perigee_deg": 276.798,
      "mean_anomaly_deg": 83.259,
      "mean_motion_rev_day": 15.27612551
    },
    {
      "epoch": "2026-04-02T16:56:53.230560Z",
      "apogee_km": 484.64700336633086,
      "perigee_km": 481.25625336619214,
      "latitude_deg": -2.9713326874470882e-05,
      "longitude_deg": 16.713483720309416,
      "height_km": 482.5286633818009,
      "semi_major_axis_km": 6861.088628366261,
      "eccentricity": 0.0002471,
      "inclination_deg": 43.0017,
      "raan_deg": 101.9863,
      "arg_perigee_deg": 276.798,
      "mean_anomaly_deg": 83.259,
      "mean_motion_rev_day": 15.27612551
    },
    {
      "epoch": "2026-04-03T07:04:17.740992Z",
      "apogee_km": 483.659696203169,
      "perigee_km": 482.27649741565256,
      "latitude_deg": -1.1245530144866122e-05,
      "longitude_deg": 160.95944628325773,
      "height_km": 482.7178560371137,
      "semi_major_axis_km": 6861.1050968094105,
      "eccentricity": 0.0001008,
      "inclination_deg": 42.9992,
      "raan_deg": 98.6644,
      "arg_perigee_deg": 272.1976,
      "mean_anomaly_deg": 87.876,
      "mean_motion_rev_day": 15.27607051
    },
    {
      "epoch": "2026-04-04T09:44:58.204608Z",
      "apogee_km": 484.264119292141,
      "perigee_km": 481.8308688231682,
      "latitude_deg": -5.563320817877019e-07,
      "longitude_deg": 113.41673615279902,
      "height_km": 482.59659133967256,
      "semi_major_axis_km": 6861.184494057655,
      "eccentricity": 0.00017732,
      "inclination_deg": 43.0027,
      "raan_deg": 92.3859,
      "arg_perigee_deg": 280.8115,
      "mean_anomaly_deg": 79.2537,
      "mean_motion_rev_day": 15.27580535
    },
    {
      "epoch": "2026-04-04T23:52:23.102976Z",
      "apogee_km": 483.80413846208376,
      "perigee_km": 482.27176364851584,
      "latitude_deg": 2.2194354758829038e-05,
      "longitude_deg": -102.34021828259436,
      "height_km": 482.64744204830595,
      "semi_major_axis_km": 6861.1749510553,
      "eccentricity": 0.00011167,
      "inclination_deg": 43.0001,
      "raan_deg": 89.0627,
      "arg_perigee_deg": 282.5878,
      "mean_anomaly_deg": 77.4849,
      "mean_motion_rev_day": 15.27583722
    },
    {
      "epoch": "2026-04-07T05:13:41.823552Z",
      "apogee_km": 483.9498910642624,
      "perigee_km": 482.0800899238129,
      "latitude_deg": -3.9477609438982856e-05,
      "longitude_deg": 162.585688423352,
      "height_km": 482.75523094786723,
      "semi_major_axis_km": 6861.151990494037,
      "eccentricity": 0.00013626,
      "inclination_deg": 43.0004,
      "raan_deg": 76.5079,
      "arg_perigee_deg": 272.2364,
      "mean_anomaly_deg": 87.8331,
      "mean_motion_rev_day": 15.2759139
    },
    {
      "epoch": "2026-04-08T07:54:21.395520Z",
      "apogee_km": 483.88108418782576,
      "perigee_km": 482.15893377857174,
      "latitude_deg": 1.0910389946230185e-05,
      "longitude_deg": 115.05054312817234,
      "height_km": 482.7779619978183,
      "semi_major_axis_km": 6861.1570089831985,
      "eccentricity": 0.0001255,
      "inclination_deg": 43.0015,
      "raan_deg": 70.2332,
      "arg_perigee_deg": 271.2507,
      "mean_anomaly_deg": 88.8201,
      "mean_motion_rev_day": 15.27589714
    },
    {
      "epoch": "2026-04-09T05:52:32.795328Z",
      "apogee_km": 484.16848299389494,
      "perigee_km": 481.8623124499718,
      "latitude_deg": -2.1702804174465178e-05,
      "longitude_deg": 139.429037375516,
      "height_km": 483.0829106291017,
      "semi_major_axis_km": 6861.152397721933,
      "eccentricity": 0.00016806,
      "inclination_deg": 43.0022,
      "raan_deg": 65.0615,
      "arg_perigee_deg": 255.4121,
      "mean_anomaly_deg": 104.6544,
      "mean_motion_rev_day": 15.27591254
    },
    {
      "epoch": "2026-04-10T05:24:53.632800Z",
      "apogee_km": 484.0849231167458,
      "perigee_km": 481.83722738729375,
      "latitude_deg": -7.701621854957667e-06,
      "longitude_deg": 139.8384094011314,
      "height_km": 482.7837295340412,
      "semi_major_axis_km": 6861.09807525202,
      "eccentricity": 0.0001638,
      "inclination_deg": 43.0028,
      "raan_deg": 59.5244,
      "arg_perigee_deg": 267.6819,
      "mean_anomaly_deg": 92.3845,
      "mean_motion_rev_day": 15.27609396
    },
    {
      "epoch": "2026-04-11T06:31:23.493216Z",
      "apogee_km": 484.21416514321663,
      "perigee_km": 481.72769962852,
      "latitude_deg": -3.358107608100188e-06,
      "longitude_deg": 116.27513234556496,
      "height_km": 483.089354271677,
      "semi_major_axis_km": 6861.107932385868,
      "eccentricity": 0.0001812,
      "inclination_deg": 43.003,
      "raan_deg": 53.6167,
      "arg_perigee_deg": 254.0729,
      "mean_anomaly_deg": 105.9923,
      "mean_motion_rev_day": 15.27606104
    },
    {
      "epoch": "2026-04-13T05:36:05.787648Z",
      "apogee_km": 484.19018804601365,
      "perigee_km": 481.86343017506806,
      "latitude_deg": 9.458405185410994e-06,
      "longitude_deg": 117.08737589873118,
      "height_km": 482.72032597755754,
      "semi_major_axis_km": 6861.163809110541,
      "eccentricity": 0.00016956,
      "inclination_deg": 43.0047,
      "raan_deg": 42.5386,
      "arg_perigee_deg": 274.1383,
      "mean_anomaly_deg": 85.9275,
      "mean_motion_rev_day": 15.27587443
    },
    {
      "epoch": "2026-04-14T20:50:00.061728Z",
      "apogee_km": 483.8790234694952,
      "perigee_km": 482.1458971158245,
      "latitude_deg": -1.1076696080342336e-05,
      "longitude_deg": -122.2338766627333,
      "height_km": 483.4829818810501,
      "semi_major_axis_km": 6861.14946029266,
      "eccentricity": 0.0001263,
      "inclination_deg": 43.0018,
      "raan_deg": 33.3047,
      "arg_perigee_deg": 216.7564,
      "mean_anomaly_deg": 143.3201,
      "mean_motion_rev_day": 15.27592235
    },
    {
      "epoch": "2026-04-15T03:06:37.678464Z",
      "apogee_km": 483.87199560628596,
      "perigee_km": 482.2008882027758,
      "latitude_deg": -3.8308206455628845e-05,
      "longitude_deg": 141.87716637401385,
      "height_km": 482.8806795051372,
      "semi_major_axis_km": 6861.173441904531,
      "eccentricity": 0.00012178,
      "inclination_deg": 43.0027,
      "raan_deg": 31.8303,
      "arg_perigee_deg": 265.3734,
      "mean_anomaly_deg": 94.6978,
      "mean_motion_rev_day": 15.27584226
    }
  ]
}